QIANFAN-65              
1 62795U 25016L   25269.25893090  .00000063  00000+0  78521-4 0  9998
2 62795  88.9739 111.0786 0013027 200.9278 159.1342 13.50969575 36789
QIANFAN-66              
1 62796U 25016M   25269.28778692  .00000072  00000+0  92370-4 0  9990
2 62796  88.9760 111.0306 0014245 196.6738 163.3946 13.50964804 36830
QIANFAN-67              
1 62797U 25016N   25269.29178105  .00000068  00000+0  86674-4 0  9990
2 62797  88.9751 111.0634 0014036 203.9246 156.1254 13.50966269 36805
QIANFAN-68              
1 62798U 25016P   25266.46913683  .00000070  00000+0  89224-4 0  9992
2 62798  88.9758 111.3962 0013928 210.6591 149.3747 13.50984556 36403
QIANFAN-69              
1 62799U 25016Q   25269.30006858  .00000064  00000+0  80071-4 0  9990
2 62799  88.9733 110.9910 0014850 203.4733 156.5742 13.50966332 36821
QIANFAN-70              
1 62800U 25016R   25269.31645583  .00000059  00000+0  72136-4 0  9995
2 62800  88.9755 111.1114 0014706 193.1328 166.9442 13.50970908 36783
QIANFAN-71              
1 62801U 25016S   25269.31242383  .00000042  00000+0  46924-4 0  9995
2 62801  88.9748 111.0961 0014680 207.1848 152.8536 13.50969954 36786
QIANFAN-72              
1 62802U 25016T   25269.24891622  .00000061  00000+0  77667-4 0  9993
2 62802  88.9737 111.1220 0018031 215.7828 144.2116 13.49486153 36761
